STARLINK-32717          
1 62491U 25003E   26066.01196512  .00027624  00000+0  10092-2 0  9991
2 62491  42.9995 303.9580 0001640 261.9440  98.1226 15.27592065 66267
STARLINK-32757          
1 62492U 25003F   26066.36458582  .00042625  00000+0  15486-2 0  9998
2 62492  43.0051 302.2986 0002048 266.6848  93.3770 15.27598910 66190
STARLINK-32731          
1 62493U 25003G   26066.05051465  .00017663  00000+0  64944-3 0  9992
2 62493  43.0040 304.2452 0001220 299.7426  60.3304 15.27601690 66264
STARLINK-32694          
1 62494U 25003H   26066.06706075  .00027589  00000+0  10076-2 0  9992
2 62494  42.9973 303.5094 0001595 266.1586  93.9084 15.27604171 66277
STARLINK-32708          
1 62495U 25003J   26066.03380556  .00023134  00000+0  84707-3 0  9997
2 62495  43.0016 304.1198 0001807 254.3755 105.6898 15.27598759 66147
STARLINK-32718          
1 62496U 25003K   26066.06320968  .00029877  00000+0  10899-2 0  9992
2 62496  43.0001 303.4848 0002025 262.7416  97.3206 15.27609482 66153
STARLINK-32729          
1 62497U 25003L   26066.07092262  .00018883  00000+0  69353-3 0  9992
2 62497  42.9982 303.5330 0001433 269.1826  90.8861 15.27599775 66276
STARLINK-32739          
1 62498U 25003M   26066.08632285  .00059631  00000+0  21593-2 0  9998
2 62498  43.0016 303.6501 0001730 264.3831  95.6823 15.27575269 66229
STARLINK-32714          
1 62499U 25003N   26066.04922249  .00026647  00000+0  97380-3 0  9996
2 62499  43.0031 304.2388 0001749 272.9620  87.1031 15.27598273 66269
STARLINK-32685          
1 62500U 25003P   26066.62999375  .00031556  00000+0  11505-2 0  9996
2 62500  42.9987 300.8562 0000716 298.0763  62.0016 15.27604169 66308
STARLINK-32691          
1 62501U 25003Q   26066.34660337  .00019791  00000+0  72654-3 0  9999
2 62501  42.9972 302.1628 0000716 283.9436  76.1336 15.27590255 66302
STARLINK-32788          
1 62502U 25003R   26066.34274684  .00035949  00000+0  13092-2 0  9999
2 62502  43.0002 302.1373 0001354 269.8765  90.1932 15.27587509 66196
STARLINK-32768          
1 62503U 25003S   26066.06449601  .00024715  00000+0  90443-3 0  9997
2 62503  43.0019 303.4859 0001190 289.7278  70.3445 15.27587589 66159
STARLINK-32792          
1 62504U 25003T   26066.64397513  .00031903  00000+0  11621-2 0  9993
2 62504  43.0002 300.0913 0001765 275.4928  84.5722 15.27630503 66248
STARLINK-32725          
1 62505U 25003U   26066.05678438  .00019899  00000+0  73028-3 0  9997
2 62505  43.0009 303.4122 0001707 262.7273  97.3385 15.27598451 66155
STARLINK-32681          
1 62506U 25003V   26066.61420415  .00029932  00000+0  10919-2 0  9998
2 62506  42.9949 282.1398 0000454   2.8668 357.2186 15.27606903 66568
