[{"OBJECT_NAME":"STARLINK-32717","OBJECT_ID":"2025-003E","EPOCH":"2026-03-07T00:17:13.786368","MEAN_MOTION":15.27592065,"ECCENTRICITY":0.00016403,"INCLINATION":42.9995,"RA_OF_ASC_NODE":303.958,"ARG_OF_PERICENTER":261.944,"MEAN_ANOMALY":98.1226,"EPHEMERIS_TYPE":0,"CLASSIFICATION_TYPE":"U","NORAD_CAT_ID":62491,"ELEMENT_SET_NO":999,"REV_AT_EPOCH":6626,"BSTAR":0.0010092192,"MEAN_MOTION_DOT":0.00027624,"MEAN_MOTION_DDOT":0},{"OBJECT_NAME":"STARLINK-32757","OBJECT_ID":"2025-003F","EPOCH":"2026-03-07T08:45:00.214848","MEAN_MOTION":15.2759891,"ECCENTRICITY":0.00020481,"INCLINATION":43.0051,"RA_OF_ASC_NODE":302.2986,"ARG_OF_PERICENTER":266.6848,"MEAN_ANOMALY":93.377,"EPHEMERIS_TYPE":0,"CLASSIFICATION_TYPE":"U","NORAD_CAT_ID":62492,"ELEMENT_SET_NO":999,"REV_AT_EPOCH":6619,"BSTAR":0.0015486234,"MEAN_MOTION_DOT":0.00042625,"MEAN_MOTION_DDOT":0},{"OBJECT_NAME":"STARLINK-32731","OBJECT_ID":"2025-003G","EPOCH":"2026-03-07T01:12:44.465760","MEAN_MOTION":15.2760169,"ECCENTRICITY":0.000122,"INCLINATION":43.004,"RA_OF_ASC_NODE":304.2452,"ARG_OF_PERICENTER":299.7426,"MEAN_ANOMALY":60.3304,"EPHEMERIS_TYPE":0,"CLASSIFICATION_TYPE":"U","NORAD_CAT_ID":62493,"ELEMENT_SET_NO":999,"REV_AT_EPOCH":6626,"BSTAR":0.00064943562,"MEAN_MOTION_DOT":0.00017663,"MEAN_MOTION_DDOT":0},{"OBJECT_NAME":"STARLINK-32694","OBJECT_ID":"2025-003H","EPOCH":"2026-03-07T01:36:34.048800","MEAN_MOTION":15.27604171,"ECCENTRICITY":0.00015955,"INCLINATION":42.9973,"RA_OF_ASC_NODE":303.5094,"ARG_OF_PERICENTER":266.1586,"MEAN_ANOMALY":93.9084,"EPHEMERIS_TYPE":0,"CLASSIFICATION_TYPE":"U","NORAD_CAT_ID":62494,"ELEMENT_SET_NO":999,"REV_AT_EPOCH":6627,"BSTAR":0.0010076002,"MEAN_MOTION_DOT":0.00027589,"MEAN_MOTION_DDOT":0},{"OBJECT_NAME":"STARLINK-32708","OBJECT_ID":"2025-003J","EPOCH":"2026-03-07T00:48:40.800384","MEAN_MOTION":15.27598759,"ECCENTRICITY":0.0001807,"INCLINATION":43.0016,"RA_OF_ASC_NODE":304.1198,"ARG_OF_PERICENTER":254.3755,"MEAN_ANOMALY":105.6898,"EPHEMERIS_TYPE":0,"CLASSIFICATION_TYPE":"U","NORAD_CAT_ID":62495,"ELEMENT_SET_NO":999,"REV_AT_EPOCH":6614,"BSTAR":0.00084706969,"MEAN_MOTION_DOT":0.00023134,"MEAN_MOTION_DDOT":0},{"OBJECT_NAME":"STARLINK-32718","OBJECT_ID":"2025-003K","EPOCH":"2026-03-07T01:31:01.316352","MEAN_MOTION":15.27609482,"ECCENTRICITY":0.00020253,"INCLINATION":43.0001,"RA_OF_ASC_NODE":303.4848,"ARG_OF_PERICENTER":262.7416,"MEAN_ANOMALY":97.3206,"EPHEMERIS_TYPE":0,"CLASSIFICATION_TYPE":"U","NORAD_CAT_ID":62496,"ELEMENT_SET_NO":999,"REV_AT_EPOCH":6615,"BSTAR":0.0010898513,"MEAN_MOTION_DOT":0.00029877,"MEAN_MOTION_DDOT":0},{"OBJECT_NAME":"STARLINK-32729","OBJECT_ID":"2025-003L","EPOCH":"2026-03-07T01:42:07.714368","MEAN_MOTION":15.27599775,"ECCENTRICITY":0.00014333,"INCLINATION":42.9982,"RA_OF_ASC_NODE":303.533,"ARG_OF_PERICENTER":269.1826,"MEAN_ANOMALY":90.8861,"EPHEMERIS_TYPE":0,"CLASSIFICATION_TYPE":"U","NORAD_CAT_ID":62497,"ELEMENT_SET_NO":999,"REV_AT_EPOCH":6627,"BSTAR":0.00069352785,"MEAN_MOTION_DOT":0.00018883,"MEAN_MOTION_DDOT":0},{"OBJECT_NAME":"STARLINK-32739","OBJECT_ID":"2025-003M","EPOCH":"2026-03-07T02:04:18.294240","MEAN_MOTION":15.27575269,"ECCENTRICITY":0.00017303,"INCLINATION":43.0016,"RA_OF_ASC_NODE":303.6501,"ARG_OF_PERICENTER":264.3831,"MEAN_ANOMALY":95.6823,"EPHEMERIS_TYPE":0,"CLASSIFICATION_TYPE":"U","NORAD_CAT_ID":62498,"ELEMENT_SET_NO":999,"REV_AT_EPOCH":6622,"BSTAR":0.0021593268,"MEAN_MOTION_DOT":0.00059631,"MEAN_MOTION_DDOT":0},{"OBJECT_NAME":"STARLINK-32714","OBJECT_ID":"2025-003N","EPOCH":"2026-03-07T01:10:52.823136","MEAN_MOTION":15.27598273,"ECCENTRICITY":0.00017498,"INCLINATION":43.0031,"RA_OF_ASC_NODE":304.2388,"ARG_OF_PERICENTER":272.962,"MEAN_ANOMALY":87.1031,"EPHEMERIS_TYPE":0,"CLASSIFICATION_TYPE":"U","NORAD_CAT_ID":62499,"ELEMENT_SET_NO":999,"REV_AT_EPOCH":6626,"BSTAR":0.00097380194,"MEAN_MOTION_DOT":0.00026647,"MEAN_MOTION_DDOT":0},{"OBJECT_NAME":"STARLINK-32685","OBJECT_ID":"2025-003P","EPOCH":"2026-03-07T15:07:11.460000","MEAN_MOTION":15.27604169,"ECCENTRICITY":7.164e-5,"INCLINATION":42.9987,"RA_OF_ASC_NODE":300.8562,"ARG_OF_PERICENTER":298.0763,"MEAN_ANOMALY":62.0016,"EPHEMERIS_TYPE":0,"CLASSIFICATION_TYPE":"U","NORAD_CAT_ID":62500,"ELEMENT_SET_NO":999,"REV_AT_EPOCH":6630,"BSTAR":0.0011504877,"MEAN_MOTION_DOT":0.00031556,"MEAN_MOTION_DDOT":0},{"OBJECT_NAME":"STARLINK-32691","OBJECT_ID":"2025-003Q","EPOCH":"2026-03-07T08:19:06.531168","MEAN_MOTION":15.27590255,"ECCENTRICITY":7.166e-5,"INCLINATION":42.9972,"RA_OF_ASC_NODE":302.1628,"ARG_OF_PERICENTER":283.9436,"MEAN_ANOMALY":76.1336,"EPHEMERIS_TYPE":0,"CLASSIFICATION_TYPE":"U","NORAD_CAT_ID":62501,"ELEMENT_SET_NO":999,"REV_AT_EPOCH":6630,"BSTAR":0.00072654086,"MEAN_MOTION_DOT":0.00019791,"MEAN_MOTION_DDOT":0},{"OBJECT_NAME":"STARLINK-32788","OBJECT_ID":"2025-003R","EPOCH":"2026-03-07T08:13:33.326976","MEAN_MOTION":15.27587509,"ECCENTRICITY":0.00013544,"INCLINATION":43.0002,"RA_OF_ASC_NODE":302.1373,"ARG_OF_PERICENTER":269.8765,"MEAN_ANOMALY":90.1932,"EPHEMERIS_TYPE":0,"CLASSIFICATION_TYPE":"U","NORAD_CAT_ID":62502,"ELEMENT_SET_NO":999,"REV_AT_EPOCH":6619,"BSTAR":0.0013092176,"MEAN_MOTION_DOT":0.00035949,"MEAN_MOTION_DDOT":0},{"OBJECT_NAME":"STARLINK-32768","OBJECT_ID":"2025-003S","EPOCH":"2026-03-07T01:32:52.455264","MEAN_MOTION":15.27587589,"ECCENTRICITY":0.00011903,"INCLINATION":43.0019,"RA_OF_ASC_NODE":303.4859,"ARG_OF_PERICENTER":289.7278,"MEAN_ANOMALY":70.3445,"EPHEMERIS_TYPE":0,"CLASSIFICATION_TYPE":"U","NORAD_CAT_ID":62503,"ELEMENT_SET_NO":999,"REV_AT_EPOCH":6615,"BSTAR":0.00090443351,"MEAN_MOTION_DOT":0.00024715,"MEAN_MOTION_DDOT":0},{"OBJECT_NAME":"STARLINK-32792","OBJECT_ID":"2025-003T","EPOCH":"2026-03-07T15:27:19.451232","MEAN_MOTION":15.27630503,"ECCENTRICITY":0.00017658,"INCLINATION":43.0002,"RA_OF_ASC_NODE":300.0913,"ARG_OF_PERICENTER":275.4928,"MEAN_ANOMALY":84.5722,"EPHEMERIS_TYPE":0,"CLASSIFICATION_TYPE":"U","NORAD_CAT_ID":62504,"ELEMENT_SET_NO":999,"REV_AT_EPOCH":6624,"BSTAR":0.0011620586,"MEAN_MOTION_DOT":0.00031903,"MEAN_MOTION_DDOT":0},{"OBJECT_NAME":"STARLINK-32725","OBJECT_ID":"2025-003U","EPOCH":"2026-03-07T01:21:46.170432","MEAN_MOTION":15.27598451,"ECCENTRICITY":0.00017076,"INCLINATION":43.0009,"RA_OF_ASC_NODE":303.4122,"ARG_OF_PERICENTER":262.7273,"MEAN_ANOMALY":97.3385,"EPHEMERIS_TYPE":0,"CLASSIFICATION_TYPE":"U","NORAD_CAT_ID":62505,"ELEMENT_SET_NO":999,"REV_AT_EPOCH":6615,"BSTAR":0.00073028121,"MEAN_MOTION_DOT":0.00019899,"MEAN_MOTION_DDOT":0},{"OBJECT_NAME":"STARLINK-32681","OBJECT_ID":"2025-003V","EPOCH":"2026-03-07T14:44:27.238560","MEAN_MOTION":15.27606903,"ECCENTRICITY":4.547e-5,"INCLINATION":42.9949,"RA_OF_ASC_NODE":282.1398,"ARG_OF_PERICENTER":2.8668,"MEAN_ANOMALY":357.2186,"EPHEMERIS_TYPE":0,"CLASSIFICATION_TYPE":"U","NORAD_CAT_ID":62506,"ELEMENT_SET_NO":999,"REV_AT_EPOCH":6656,"BSTAR":0.0010919341,"MEAN_MOTION_DOT":0.00029932,"MEAN_MOTION_DDOT":0}]
